ONEWEB-0328             
1 49197U 21083M   25136.25998196  .00000340  00000+0  89536-3 0  9990
2 49197  87.8984  39.0872 0001940  82.5440 277.5910 13.13469857180087
ONEWEB-0331             
1 49198U 21083N   25135.55556838  .00000109  00000+0  24256-3 0  9997
2 49198  87.9153  54.4794 0002312  77.7675 282.3716 13.18683361178887
ONEWEB-0333             
1 49199U 21083P   25136.25489986  .00000439  00000+0  11682-2 0  9999
2 49199  87.8997  39.1502 0001811  79.8605 280.2728 13.13470268180090
ONEWEB-0334             
1 49200U 21083Q   25136.10118127  .00000064  00000+0  12449-3 0  9999
2 49200  87.9274 353.5493 0000805 101.0098 259.1126 13.20769402185664
ONEWEB-0335             
1 49201U 21083R   25136.09746961  .00000232  00000+0  59965-3 0  9992
2 49201  87.8995  39.1699 0002026  75.9459 284.1896 13.13471016180082
ONEWEB-0336             
1 49202U 21083S   25135.53544644 -.00000161  00000+0 -47504-3 0  9994
2 49202  87.8995  39.2749 0001829  74.5241 285.6090 13.13470286178711
ONEWEB-0337             
1 49203U 21083T   25135.54547057  .00000005  00000+0 -21173-4 0  9998
2 49203  87.8995  39.2721 0002049  81.8836 278.2525 13.13470539180016
ONEWEB-0338             
1 49204U 21083U   25135.39412697  .00000060  00000+0  11611-3 0  9998
2 49204  87.9281 353.6778 0001465  90.3499 269.7802 13.20773336184300
ONEWEB-0339             
1 49205U 21083V   25136.08730536  .00000288  00000+0  75299-3 0  9995
2 49205  87.8991  39.1524 0001858  83.0808 277.0532 13.13471660180060
ONEWEB-0340             
1 49206U 21083W   25136.30012642  .00000020  00000+0  17614-4 0  9994
2 49206  87.9159  54.3293 0002062  79.7956 280.3409 13.18684509178952
ONEWEB-0341             
1 49207U 21083X   25136.23214875  .00000028  00000+0  38042-4 0  9995
2 49207  87.9160  54.3530 0002286  93.0103 267.1291 13.18688272178964
ONEWEB-0342             
1 49208U 21083Y   25136.08225211  .00000082  00000+0  16926-3 0  9991
2 49208  87.9269 353.5232 0001682  86.8455 273.2871 13.20773314185669
ONEWEB-0343             
1 49209U 21083Z   25135.54453962  .00000018  00000+0  13569-4 0  9998
2 49209  87.9156  54.4774 0001978  97.7892 262.3465 13.18685952177630
ONEWEB-0344             
1 49210U 21083AA  25135.54898543  .00000121  00000+0  29732-3 0  9991
2 49210  87.8996  39.2978 0002204  88.1120 272.0262 13.13471942178698
ONEWEB-0345             
1 49211U 21083AB  25135.23581261  .00000002  00000+0 -29689-4 0  9995
2 49211  87.8993  39.3138 0002259  89.5960 270.5428 13.13469830179963
ONEWEB-0346             
1 49212U 21083AC  25136.23690433  .00000060  00000+0  12032-3 0  9995
2 49212  87.9158  54.3614 0002396  67.7961 292.3425 13.18686198178955
ONEWEB-0348             
1 49213U 21083AD  25135.61825019  .00000063  00000+0  12225-3 0  9994
2 49213  87.9279 353.6187 0002477  84.2065 275.9351 13.20772707185632
ONEWEB-0350             
1 49214U 21083AE  25136.23542638  .00000043  00000+0  83200-4 0  9997
2 49214  87.8992  39.1064 0002131  85.1008 275.0365 13.13470563180120
ONEWEB-0351             
1 49215U 21083AF  25136.06634214  .00000026  00000+0  32668-4 0  9994
2 49215  87.9274 353.5144 0001377 110.6344 249.4937 13.20771047185668
ONEWEB-0352             
1 49216U 21083AG  25136.21595171 -.00000263  00000+0 -75391-3 0  9994
2 49216  87.8997  39.1505 0001543  92.3339 267.7967 13.13471346180216
ONEWEB-0354             
1 49217U 21083AH  25136.54626558  .00000037  00000+0  59135-4 0  9991
2 49217  87.9278 353.4164 0002123  88.1936 271.9440 13.20772943185767
ONEWEB-0355             
1 49218U 21083AJ  25136.09252633  .00000181  00000+0  46180-3 0  9996
2 49218  87.8995  39.1732 0001885  86.5902 273.5443 13.13468655180075
ONEWEB-0357             
1 49219U 21083AK  25136.08856548  .00000092  00000+0  19334-3 0  9993
2 49219  87.9275 353.5146 0001765  91.0233 269.1103 13.20773000185693
ONEWEB-0332             
1 49279U 21090A   25136.18827087  .00000107  00000+0  25379-3 0  9997
2 49279  87.9062   8.6947 0001528  80.9402 279.1901 13.14503129175425
ONEWEB-0347             
1 49280U 21090B   25136.53362870  .00000011  00000+0 -60510-5 0  9995
2 49280  87.9277 353.4334 0001488  76.5463 283.5836 13.20772907178685
ONEWEB-0349             
1 49281U 21090C   25136.11065794  .00000115  00000+0  25167-3 0  9996
2 49281  87.9278 353.5226 0001777  87.5364 272.5972 13.20772742178700
ONEWEB-0353             
1 49282U 21090D   25135.41916778  .00000117  00000+0  28082-3 0  9997
2 49282  87.9062   8.8342 0001533  77.5693 282.5608 13.14502548175325
ONEWEB-0356             
1 49283U 21090E   25136.10909367 -.00000389  00000+0 -98859-3 0  9993
2 49283  87.9280 353.5143 0002302  63.3203 296.8166 13.20766275178700
ONEWEB-0358             
1 49284U 21090F   25135.68453132  .00000088  00000+0  18441-3 0  9993
2 49284  87.9280 353.5885 0001977  84.2831 275.8527 13.20773383179370
ONEWEB-0359             
1 49285U 21090G   25135.68137438  .00000032  00000+0  47084-4 0  9997
2 49285  87.9278 353.6019 0002188  88.6926 271.4458 13.20773585179342
ONEWEB-0360             
1 49286U 21090H   25136.12644045 -.00000024  00000+0 -91458-4 0  9992
2 49286  87.9278 353.5189 0001959  85.4477 274.6880 13.20774130178723
ONEWEB-0361             
1 49287U 21090J   25135.42568623 -.00000011  00000+0 -58144-4 0  9993
2 49287  87.9280 353.6538 0001872  78.6602 281.4742 13.20773431177796
ONEWEB-0362             
1 49288U 21090K   25136.20050326 -.00000109  00000+0 -30563-3 0  9999
2 49288  87.9251  23.9068 0001819  87.0412 273.0929 13.19724597175377
ONEWEB-0363             
1 49289U 21090L   25135.66874609  .00000017  00000+0  11024-4 0  9995
2 49289  87.9276 353.6002 0002064  73.9381 286.1979 13.20773170178666
ONEWEB-0364             
1 49290U 21090M   25136.53995154  .00000031  00000+0  45103-4 0  9994
2 49290  87.9279 353.4574 0001801  79.4036 280.7300 13.20769764179909
ONEWEB-0365             
1 49291U 21090N   25136.20997001 -.00000042  00000+0 -13678-3 0  9997
2 49291  87.9241  23.8634 0001733  82.2169 277.9160 13.19727607175352
ONEWEB-0366             
1 49292U 21090P   25136.10106003  .00000289  00000+0  74637-3 0  9994
2 49292  87.9063   8.7110 0001841  79.8533 280.2804 13.14502533176697
ONEWEB-0367             
1 49293U 21090Q   25135.66716590 -.00000001  00000+0 -33886-4 0  9999
2 49293  87.9279 353.5959 0001682  90.4323 269.7003 13.20773096178650
ONEWEB-0368             
1 49294U 21090R   25135.56457213  .00000017  00000+0  11080-4 0  9990
2 49294  87.9280 353.6493 0001452  57.1625 302.9648 13.20769278179795
ONEWEB-0369             
1 49295U 21090S   25135.44706267 -.00000026  00000+0 -97220-4 0  9996
2 49295  87.9249  24.0405 0001758  79.6787 280.4543 13.19723809173954
ONEWEB-0370             
1 49296U 21090T   25135.60087872  .00000003  00000+0 -25082-4 0  9990
2 49296  87.9278 353.6142 0001961  94.0081 266.1277 13.20773699177380
ONEWEB-0371             
1 49297U 21090U   25136.21312403  .00000081  00000+0  17040-3 0  9999
2 49297  87.9249  23.8782 0001746  84.6194 275.5138 13.19728171175387
ONEWEB-0372             
1 49298U 21090V   25135.66545466  .00000014  00000+0  14781-5 0  9992
2 49298  87.9277 353.6106 0001643  81.5328 278.5991 13.20773228178663
ONEWEB-0373             
1 49299U 21090W   25136.07120974  .00000064  00000+0  12609-3 0  9992
2 49299  87.9279 353.5419 0001845  78.6601 281.4739 13.20772998179901
ONEWEB-0374             
1 49300U 21090X   25135.63166542  .00000248  00000+0  63318-3 0  9994
2 49300  87.9060   8.7852 0001880  66.3823 293.7504 13.14502372176623
ONEWEB-0375             
1 49301U 21090Y   25136.05858155 -.00000059  00000+0 -17695-3 0  9999
2 49301  87.9277 353.5215 0002304  71.6616 288.4767 13.20773145179393
ONEWEB-0376             
1 49302U 21090Z   25135.45337306 -.00000011  00000+0 -59120-4 0  9991
2 49302  87.9243  24.0158 0001575  81.3997 278.7314 13.19728545173994
ONEWEB-0377             
1 49303U 21090AA  25135.66572182 -.00000028  00000+0 -10047-3 0  9990
2 49303  87.9279 353.5928 0002053  87.1742 272.9626 13.20773528179321
ONEWEB-0378             
1 49304U 21090AB  25136.52116811 -.00000043  00000+0 -13706-3 0  9992
2 49304  87.9281 353.4297 0001900  79.5243 280.6104 13.20774841178745
ONEWEB-0379             
1 49305U 21090AC  25135.62689866  .00000200  00000+0  50624-3 0  9991
2 49305  87.9062   8.7905 0001694  78.1812 281.9508 13.14503298176633
ONEWEB-0380             
1 49306U 21090AD  25136.20839226  .00000035  00000+0  55405-4 0  9993
2 49306  87.9248  23.8918 0002076  80.6463 279.4905 13.19724456175343
ONEWEB-0381             
1 49307U 21090AE  25136.11697293  .00000118  00000+0  25762-3 0  9994
2 49307  87.9278 353.5111 0002032  78.1286 282.0075 13.20769885178711
ONEWEB-0382             
1 49308U 21090AF  25135.42253807  .00000020  00000+0  16988-4 0  9990
2 49308  87.9279 353.6437 0001935  74.2670 285.8676 13.20773362177318
ONEWEB-0383             
1 49309U 21090AG  25136.07725794  .00000124  00000+0  30121-3 0  9991
2 49309  87.9058   8.6820 0001667  76.3509 283.7806 13.14502052176717
ONEWEB-0384             
1 49310U 21090AH  25135.57046171  .00000021  00000+0  19024-4 0  9998
2 49310  87.9280 353.6308 0001976  68.7426 291.3918 13.20783048178653
ONEWEB-0385             
1 49311U 21090AJ  25135.33888455  .00000031  00000+0  45391-4 0  9999
2 49311  87.9280 353.6779 0001854  79.6071 280.5272 13.20769352177281
ONEWEB-0386             
1 49312U 21090AK  25136.11381114  .00000081  00000+0  16749-3 0  9996
2 49312  87.9273 353.4963 0001804  74.3381 285.7952 13.20774210178718
ONEWEB-0387             
1 49313U 21090AL  25135.64349420  .00000028  00000+0  35864-4 0  9999
2 49313  87.9263 353.6553 0002131  81.4148 278.7227 13.20772749178654
ONEWEB-0388             
1 49314U 21090AM  25135.44549483 -.00000066  00000+0 -19791-3 0  9993
2 49314  87.9249  24.0479 0001893  75.9115 284.2228 13.19724523173957
